[{"OBJECT_NAME":"QIANFAN-52","OBJECT_ID":"2024-232S","EPOCH":"2026-03-07T07:26:33.756288","MEAN_MOTION":13.51001108,"ECCENTRICITY":0.00139644,"INCLINATION":89.0058,"RA_OF_ASC_NODE":32.5711,"ARG_OF_PERICENTER":314.4963,"MEAN_ANOMALY":45.5046,"EPHEMERIS_TYPE":0,"CLASSIFICATION_TYPE":"U","NORAD_CAT_ID":62253,"ELEMENT_SET_NO":999,"REV_AT_EPOCH":7936,"BSTAR":0.00013394367,"MEAN_MOTION_DOT":9.8e-7,"MEAN_MOTION_DDOT":0},{"OBJECT_NAME":"QIANFAN-53","OBJECT_ID":"2024-232T","EPOCH":"2026-03-07T06:56:53.303712","MEAN_MOTION":13.51003834,"ECCENTRICITY":0.00128906,"INCLINATION":89.0065,"RA_OF_ASC_NODE":32.684,"ARG_OF_PERICENTER":316.3648,"MEAN_ANOMALY":43.6483,"EPHEMERIS_TYPE":0,"CLASSIFICATION_TYPE":"U","NORAD_CAT_ID":62254,"ELEMENT_SET_NO":999,"REV_AT_EPOCH":7932,"BSTAR":0.00013772266,"MEAN_MOTION_DOT":1.01e-6,"MEAN_MOTION_DDOT":0},{"OBJECT_NAME":"QIANFAN-54","OBJECT_ID":"2024-232U","EPOCH":"2026-03-07T06:09:32.393952","MEAN_MOTION":13.51003278,"ECCENTRICITY":0.00029948,"INCLINATION":89.0057,"RA_OF_ASC_NODE":32.3584,"ARG_OF_PERICENTER":36.727,"MEAN_ANOMALY":323.4085,"EPHEMERIS_TYPE":0,"CLASSIFICATION_TYPE":"U","NORAD_CAT_ID":62255,"ELEMENT_SET_NO":999,"REV_AT_EPOCH":11082,"BSTAR":0.00015506064,"MEAN_MOTION_DOT":1.12e-6,"MEAN_MOTION_DDOT":0},{"OBJECT_NAME":"QIANFAN-55","OBJECT_ID":"2025-016A","EPOCH":"2026-03-07T06:47:04.098048","MEAN_MOTION":13.50996419,"ECCENTRICITY":0.0019461,"INCLINATION":88.9691,"RA_OF_ASC_NODE":94.462,"ARG_OF_PERICENTER":103.4077,"MEAN_ANOMALY":256.9245,"EPHEMERIS_TYPE":0,"CLASSIFICATION_TYPE":"U","NORAD_CAT_ID":62785,"ELEMENT_SET_NO":999,"REV_AT_EPOCH":5860,"BSTAR":6.0549242e-5,"MEAN_MOTION_DOT":5.1e-7,"MEAN_MOTION_DDOT":0},{"OBJECT_NAME":"QIANFAN-56","OBJECT_ID":"2025-016B","EPOCH":"2026-03-07T05:23:59.335584","MEAN_MOTION":13.50998279,"ECCENTRICITY":0.00180976,"INCLINATION":88.9664,"RA_OF_ASC_NODE":94.2817,"ARG_OF_PERICENTER":105.6056,"MEAN_ANOMALY":254.7095,"EPHEMERIS_TYPE":0,"CLASSIFICATION_TYPE":"U","NORAD_CAT_ID":62786,"ELEMENT_SET_NO":999,"REV_AT_EPOCH":5864,"BSTAR":3.3738177e-5,"MEAN_MOTION_DOT":3.4e-7,"MEAN_MOTION_DDOT":0},{"OBJECT_NAME":"QIANFAN-57","OBJECT_ID":"2025-016C","EPOCH":"2026-03-07T06:11:28.543200","MEAN_MOTION":13.50997223,"ECCENTRICITY":0.00013803,"INCLINATION":88.9696,"RA_OF_ASC_NODE":94.4581,"ARG_OF_PERICENTER":101.2104,"MEAN_ANOMALY":258.9202,"EPHEMERIS_TYPE":0,"CLASSIFICATION_TYPE":"U","NORAD_CAT_ID":62787,"ELEMENT_SET_NO":999,"REV_AT_EPOCH":5861,"BSTAR":5.1704641e-5,"MEAN_MOTION_DOT":4.5e-7,"MEAN_MOTION_DDOT":0},{"OBJECT_NAME":"QIANFAN-58","OBJECT_ID":"2025-016D","EPOCH":"2026-03-07T05:29:54.447360","MEAN_MOTION":13.50998848,"ECCENTRICITY":0.00160331,"INCLINATION":88.9665,"RA_OF_ASC_NODE":94.2666,"ARG_OF_PERICENTER":98.8228,"MEAN_ANOMALY":261.4739,"EPHEMERIS_TYPE":0,"CLASSIFICATION_TYPE":"U","NORAD_CAT_ID":62788,"ELEMENT_SET_NO":999,"REV_AT_EPOCH":5865,"BSTAR":4.823747e-5,"MEAN_MOTION_DOT":4.3e-7,"MEAN_MOTION_DDOT":0},{"OBJECT_NAME":"QIANFAN-59","OBJECT_ID":"2025-016E","EPOCH":"2026-03-07T02:32:22.900704","MEAN_MOTION":13.50994722,"ECCENTRICITY":0.00163884,"INCLINATION":88.9688,"RA_OF_ASC_NODE":94.3732,"ARG_OF_PERICENTER":102.4281,"MEAN_ANOMALY":257.8705,"EPHEMERIS_TYPE":0,"CLASSIFICATION_TYPE":"U","NORAD_CAT_ID":62789,"ELEMENT_SET_NO":999,"REV_AT_EPOCH":5863,"BSTAR":6.7962001e-5,"MEAN_MOTION_DOT":5.6e-7,"MEAN_MOTION_DDOT":0},{"OBJECT_NAME":"QIANFAN-60","OBJECT_ID":"2025-016F","EPOCH":"2026-03-07T06:53:05.372736","MEAN_MOTION":13.51009355,"ECCENTRICITY":0.00179477,"INCLINATION":88.967,"RA_OF_ASC_NODE":94.3098,"ARG_OF_PERICENTER":98.9532,"MEAN_ANOMALY":261.3651,"EPHEMERIS_TYPE":0,"CLASSIFICATION_TYPE":"U","NORAD_CAT_ID":62790,"ELEMENT_SET_NO":999,"REV_AT_EPOCH":5864,"BSTAR":3.6325675e-5,"MEAN_MOTION_DOT":3.6e-7,"MEAN_MOTION_DDOT":0},{"OBJECT_NAME":"QIANFAN-61","OBJECT_ID":"2025-016G","EPOCH":"2026-03-05T23:39:19.133568","MEAN_MOTION":13.46909473,"ECCENTRICITY":0.00151833,"INCLINATION":88.9744,"RA_OF_ASC_NODE":94.6579,"ARG_OF_PERICENTER":117.5402,"MEAN_ANOMALY":242.7291,"EPHEMERIS_TYPE":0,"CLASSIFICATION_TYPE":"U","NORAD_CAT_ID":62791,"ELEMENT_SET_NO":999,"REV_AT_EPOCH":5848,"BSTAR":-3.090309,"MEAN_MOTION_DOT":-0.01754025,"MEAN_MOTION_DDOT":0},{"OBJECT_NAME":"QIANFAN-62","OBJECT_ID":"2025-016H","EPOCH":"2026-03-07T05:59:40.587648","MEAN_MOTION":13.50996642,"ECCENTRICITY":0.00182535,"INCLINATION":88.9684,"RA_OF_ASC_NODE":94.3567,"ARG_OF_PERICENTER":98.7901,"MEAN_ANOMALY":261.5318,"EPHEMERIS_TYPE":0,"CLASSIFICATION_TYPE":"U","NORAD_CAT_ID":62792,"ELEMENT_SET_NO":999,"REV_AT_EPOCH":5864,"BSTAR":4.3379532e-5,"MEAN_MOTION_DOT":4.0e-7,"MEAN_MOTION_DDOT":0},{"OBJECT_NAME":"QIANFAN-63","OBJECT_ID":"2025-016J","EPOCH":"2026-03-07T06:35:16.721376","MEAN_MOTION":13.50995295,"ECCENTRICITY":0.00183014,"INCLINATION":88.969,"RA_OF_ASC_NODE":94.3114,"ARG_OF_PERICENTER":103.4919,"MEAN_ANOMALY":256.8273,"EPHEMERIS_TYPE":0,"CLASSIFICATION_TYPE":"U","NORAD_CAT_ID":62793,"ELEMENT_SET_NO":999,"REV_AT_EPOCH":5868,"BSTAR":3.836921e-5,"MEAN_MOTION_DOT":3.7e-7,"MEAN_MOTION_DDOT":0},{"OBJECT_NAME":"QIANFAN-64","OBJECT_ID":"2025-016K","EPOCH":"2026-03-07T05:47:53.593728","MEAN_MOTION":13.5100567,"ECCENTRICITY":0.00162481,"INCLINATION":88.9677,"RA_OF_ASC_NODE":94.2774,"ARG_OF_PERICENTER":97.2866,"MEAN_ANOMALY":263.0133,"EPHEMERIS_TYPE":0,"CLASSIFICATION_TYPE":"U","NORAD_CAT_ID":62794,"ELEMENT_SET_NO":999,"REV_AT_EPOCH":5867,"BSTAR":5.0308956e-5,"MEAN_MOTION_DOT":4.5e-7,"MEAN_MOTION_DDOT":0},{"OBJECT_NAME":"QIANFAN-65","OBJECT_ID":"2025-016L","EPOCH":"2026-03-07T07:28:28.719264","MEAN_MOTION":13.51008842,"ECCENTRICITY":0.00160944,"INCLINATION":88.9673,"RA_OF_ASC_NODE":94.2932,"ARG_OF_PERICENTER":98.58,"MEAN_ANOMALY":261.7175,"EPHEMERIS_TYPE":0,"CLASSIFICATION_TYPE":"U","NORAD_CAT_ID":62795,"ELEMENT_SET_NO":999,"REV_AT_EPOCH":5866,"BSTAR":3.0897696e-5,"MEAN_MOTION_DOT":3.2e-7,"MEAN_MOTION_DDOT":0},{"OBJECT_NAME":"QIANFAN-66","OBJECT_ID":"2025-016M","EPOCH":"2026-03-07T08:09:58.873536","MEAN_MOTION":13.50996974,"ECCENTRICITY":0.00172013,"INCLINATION":88.9693,"RA_OF_ASC_NODE":94.2769,"ARG_OF_PERICENTER":94.7287,"MEAN_ANOMALY":265.5829,"EPHEMERIS_TYPE":0,"CLASSIFICATION_TYPE":"U","NORAD_CAT_ID":62796,"ELEMENT_SET_NO":999,"REV_AT_EPOCH":5871,"BSTAR":2.2717352e-5,"MEAN_MOTION_DOT":2.7e-7,"MEAN_MOTION_DDOT":0},{"OBJECT_NAME":"QIANFAN-67","OBJECT_ID":"2025-016N","EPOCH":"2026-03-07T06:29:10.801824","MEAN_MOTION":13.50995345,"ECCENTRICITY":0.00171635,"INCLINATION":88.9683,"RA_OF_ASC_NODE":94.3015,"ARG_OF_PERICENTER":100.9601,"MEAN_ANOMALY":259.3482,"EPHEMERIS_TYPE":0,"CLASSIFICATION_TYPE":"U","NORAD_CAT_ID":62797,"ELEMENT_SET_NO":999,"REV_AT_EPOCH":5867,"BSTAR":2.0279795e-5,"MEAN_MOTION_DOT":2.5e-7,"MEAN_MOTION_DDOT":0},{"OBJECT_NAME":"QIANFAN-68","OBJECT_ID":"2025-016P","EPOCH":"2026-03-07T08:04:09.916032","MEAN_MOTION":13.51005333,"ECCENTRICITY":0.00172258,"INCLINATION":88.9687,"RA_OF_ASC_NODE":94.3429,"ARG_OF_PERICENTER":99.2421,"MEAN_ANOMALY":261.0679,"EPHEMERIS_TYPE":0,"CLASSIFICATION_TYPE":"U","NORAD_CAT_ID":62798,"ELEMENT_SET_NO":999,"REV_AT_EPOCH":5866,"BSTAR":3.3646469e-5,"MEAN_MOTION_DOT":3.4e-7,"MEAN_MOTION_DDOT":0}]
