QIANFAN-52              
1 62253U 24232S   26066.31011292  .00000098  00000+0  13394-3 0  9999
2 62253  89.0058  32.5711 0013964 314.4963  45.5046 13.51001108 79361
QIANFAN-53              
1 62254U 24232T   26066.28950583  .00000101  00000+0  13772-3 0  9996
2 62254  89.0065  32.6840 0012890 316.3648  43.6483 13.51003834 79320
QIANFAN-54              
1 62255U 24232U   26066.25662493  .00000112  00000+0  15506-3 0  9993
2 62255  89.0057  32.3584 0002994  36.7270 323.4085 13.51003278110822
QIANFAN-55              
1 62785U 25016A   26066.28268632  .00000051  00000+0  60549-4 0  9992
2 62785  88.9691  94.4620 0019461 103.4077 256.9245 13.50996419 58608
QIANFAN-56              
1 62786U 25016B   26066.22499231  .00000034  00000+0  33738-4 0  9999
2 62786  88.9664  94.2817 0018097 105.6056 254.7095 13.50998279 58649
QIANFAN-57              
1 62787U 25016C   26066.25796925  .00000045  00000+0  51705-4 0  9999
2 62787  88.9696  94.4581 0001380 101.2104 258.9202 13.50997223 58619
QIANFAN-58              
1 62788U 25016D   26066.22910240  .00000043  00000+0  48237-4 0  9999
2 62788  88.9665  94.2666 0016033  98.8228 261.4739 13.50998848 58659
QIANFAN-59              
1 62789U 25016E   26066.10582061  .00000056  00000+0  67962-4 0  9993
2 62789  88.9688  94.3732 0016388 102.4281 257.8705 13.50994722 58631
QIANFAN-60              
1 62790U 25016F   26066.28686774  .00000036  00000+0  36326-4 0  9998
2 62790  88.9670  94.3098 0017947  98.9532 261.3651 13.51009355 58640
QIANFAN-61              
1 62791U 25016G   26064.98563812 -.01754025  00000+0 -30903+1 0  9999
2 62791  88.9744  94.6579 0015183 117.5402 242.7291 13.46909473 58483
QIANFAN-62              
1 62792U 25016H   26066.24977532  .00000040  00000+0  43380-4 0  9994
2 62792  88.9684  94.3567 0018253  98.7901 261.5318 13.50996642 58642
QIANFAN-63              
1 62793U 25016J   26066.27449909  .00000037  00000+0  38369-4 0  9997
2 62793  88.9690  94.3114 0018301 103.4919 256.8273 13.50995295 58689
QIANFAN-64              
1 62794U 25016K   26066.24159252  .00000045  00000+0  50309-4 0  9991
2 62794  88.9677  94.2774 0016248  97.2866 263.0133 13.51005670 58679
QIANFAN-65              
1 62795U 25016L   26066.31144351  .00000032  00000+0  30898-4 0  9991
2 62795  88.9673  94.2932 0016094  98.5800 261.7175 13.51008842 58667
QIANFAN-66              
1 62796U 25016M   26066.34026474  .00000027  00000+0  22717-4 0  9995
2 62796  88.9693  94.2769 0017201  94.7287 265.5829 13.50996974 58711
QIANFAN-67              
1 62797U 25016N   26066.27026391  .00000025  00000+0  20280-4 0  9997
2 62797  88.9683  94.3015 0017163 100.9601 259.3482 13.50995345 58675
QIANFAN-68              
1 62798U 25016P   26066.33622588  .00000034  00000+0  33646-4 0  9995
2 62798  88.9687  94.3429 0017225  99.2421 261.0679 13.51005333 58665
